NORAD_CAT_ID,OBJECT_NAME,OBJECT_TYPE,EPOCH,MEAN_MOTION,ECCENTRICITY,INCLINATION,RA_OF_ASC_NODE,ARG_OF_PERICENTER,MEAN_ANOMALY,BSTAR,MEAN_MOTION_DOT,MEAN_MOTION_DDOT,TLE_LINE0,TLE_LINE1,TLE_LINE2,SEMIMAJOR_AXIS,PERIOD,APOGEE,PERIGEE,DECAYED
53167.0,STARLINK-3683,PAYLOAD,2023-12-26 14:47:31,15.08840737,0.0001297,53.2167,158.7311,90.9044,269.2097,-5.8243e-05,-1.215e-05,0.0,0 STARLINK-3683,1 53167U 22083AM  23360.61633546 -.00001215  00000-0 -58243-4 0  9992,2 53167  53.2167 158.7311 0001297  90.9044 269.2097 15.08840737 80173,6917.878,95.438,540.64,538.846,0.0
53167.0,STARLINK-3683,PAYLOAD,2023-12-26 16:22:54,15.08840952,0.0001299,53.2167,158.4337,92.2471,267.867,-5.3985e-05,-1.147e-05,0.0,0 STARLINK-3683,1 53167U 22083AM  23360.68257505 -.00001147  00000-0 -53985-4 0  9998,2 53167  53.2167 158.4337 0001299  92.2471 267.8670 15.08840952 80821,6917.877,95.437,540.641,538.844,0.0
53167.0,STARLINK-3683,PAYLOAD,2023-12-26 21:09:05,15.08764173,0.0001772,53.2165,157.5429,91.2688,268.8507,0.00093994,0.00014672,0.0,0 STARLINK-3683,1 53167U 22083AM  23360.88131685  .00014672  00000-0  93994-3 0  9998,2 53167  53.2165 157.5429 0001772  91.2688 268.8507 15.08764173 80219,6918.112,95.442,541.203,538.751,0.0
53167.0,STARLINK-3683,PAYLOAD,2023-12-27 14:38:18,15.0883703,0.0001253,53.2161,154.2741,91.4209,268.6927,3.9426e-05,3.4e-06,0.0,0 STARLINK-3683,1 53167U 22083AM  23361.60993759  .00000340  00000-0  39426-4 0  9995,2 53167  53.2161 154.2741 0001253  91.4209 268.6927 15.08837030 80320,6917.889,95.438,540.621,538.888,0.0
53167.0,STARLINK-3683,PAYLOAD,2023-12-27 17:49:04,15.08840551,0.0001278,53.2163,153.6789,87.5183,272.5955,6.883e-05,8.08e-06,0.0,0 STARLINK-3683,1 53167U 22083AM  23361.74241489  .00000808  00000-0  68830-4 0  9996,2 53167  53.2163 153.6789 0001278  87.5183 272.5955 15.08840551 80980,6917.879,95.438,540.628,538.86,0.0
53167.0,STARLINK-3683,PAYLOAD,2023-12-28 14:29:05,15.08837887,0.0001266,53.2164,149.8133,84.0775,276.0362,9.068e-05,1.156e-05,0.0,0 STARLINK-3683,1 53167U 22083AM  23362.60353725  .00001156  00000-0  90680-4 0  9994,2 53167  53.2164 149.8133 0001266  84.0775 276.0362 15.08837887 80470,6917.887,95.438,540.628,538.876,0.0
53167.0,STARLINK-3683,PAYLOAD,2023-12-28 19:15:14,15.08843443,0.0001305,53.2165,148.921,82.3079,277.8061,0.0001364,1.884e-05,0.0,0 STARLINK-3683,1 53167U 22083AM  23362.80225304  .00001884  00000-0  13640-3 0  9995,2 53167  53.2165 148.9210 0001305  82.3079 277.8061 15.08843443 81144,6917.87,95.437,540.638,538.832,0.0
53167.0,STARLINK-3683,PAYLOAD,2023-12-29 09:33:43,15.08835417,0.000122,53.2165,146.2442,96.8024,263.3107,4.2733e-05,3.92e-06,0.0,0 STARLINK-3683,1 53167U 22083AM  23363.39842127  .00000392  00000-0  42733-4 0  9997,2 53167  53.2165 146.2442 0001220  96.8024 263.3107 15.08835417 81231,6917.894,95.438,540.603,538.915,0.0
53167.0,STARLINK-3683,PAYLOAD,2023-12-29 14:19:52,15.08840129,0.0001473,53.2167,145.3554,85.1973,274.9187,2.9351e-05,1.79e-06,0.0,0 STARLINK-3683,1 53167U 22083AM  23363.59713956  .00000179  00000-0  29351-4 0  9990,2 53167  53.2167 145.3554 0001473  85.1973 274.9187 15.08840129 80625,6917.88,95.438,540.764,538.726,0.0
53167.0,STARLINK-3683,PAYLOAD,2023-12-30 14:10:40,15.08830306,0.0001295,53.2169,140.8944,78.6234,281.4904,-8.3426e-05,-1.615e-05,0.0,0 STARLINK-3683,1 53167U 22083AM  23364.59075163 -.00001615  00000-0 -83426-4 0  9993,2 53167  53.2169 140.8944 0001295  78.6234 281.4904 15.08830306 80771,6917.91,95.438,540.671,538.879,0.0
53167.0,STARLINK-3683,PAYLOAD,2023-12-30 15:46:04,15.0883011,0.0001286,53.2166,140.5972,75.1609,284.9526,-8.7093e-05,-1.673e-05,0.0,0 STARLINK-3683,1 53167U 22083AM  23364.65699226 -.00001673  00000-0 -87093-4 0  9990,2 53167  53.2166 140.5972 0001286  75.1609 284.9526 15.08830110 81428,6917.911,95.438,540.665,538.886,0.0
53167.0,STARLINK-3683,PAYLOAD,2023-12-31 12:26:04,15.088401,0.0001123,53.2159,136.7305,75.7472,284.3645,5.5232e-05,5.91e-06,0.0,0 STARLINK-3683,1 53167U 22083AM  23365.51810520  .00000591  00000-0  55232-4 0  9994,2 53167  53.2159 136.7305 0001123  75.7472 284.3645 15.08840100 81551,6917.88,95.438,540.522,538.968,0.0
53167.0,STARLINK-3683,PAYLOAD,2023-12-31 15:36:50,15.08844694,0.0001231,53.2159,136.1357,79.3446,280.7685,7.4878e-05,9.04e-06,0.0,0 STARLINK-3683,1 53167U 22083AM  23365.65058180  .00000904  00000-0  74878-4 0  9990,2 53167  53.2159 136.1357 0001231  79.3446 280.7685 15.08844694 80930,6917.866,95.437,540.583,538.879,0.0
53167.0,STARLINK-3683,PAYLOAD,2024-01-01 13:52:14,15.08841294,0.0001356,53.2165,131.9739,78.0775,282.0369,0.00020561,2.986e-05,0.0,0 STARLINK-3683,1 53167U 22083AM  24001.57794101  .00002986  00000-0  20561-3 0  9990,2 53167  53.2165 131.9739 0001356  78.0775 282.0369 15.08841294 81076,6917.876,95.437,540.679,538.803,0.0
53167.0,STARLINK-3683,PAYLOAD,2024-01-01 15:27:37,15.08842994,0.0001367,53.2164,131.6763,79.1095,281.0051,0.00021971,3.211e-05,0.0,0 STARLINK-3683,1 53167U 22083AM  24001.64417995  .00003211  00000-0  21971-3 0  9999,2 53167  53.2164 131.6763 0001367  79.1095 281.0051 15.08842994 81725,6917.871,95.437,540.682,538.791,0.0
53167.0,STARLINK-3683,PAYLOAD,2024-01-02 12:07:38,15.08842509,0.0001476,53.2176,127.8118,92.1646,267.9515,1.1559e-05,-1.04e-06,0.0,0 STARLINK-3683,1 53167U 22083AM  24002.50530525 -.00000104  00000-0  11559-4 0  9991,2 53167  53.2176 127.8118 0001476  92.1646 267.9515 15.08842509 81851,6917.873,95.437,540.759,538.717,0.0
53167.0,STARLINK-3683,PAYLOAD,2024-01-02 13:43:01,15.08845595,0.0001437,53.2169,127.5129,93.4593,266.6563,2.422e-05,9.8e-07,0.0,0 STARLINK-3683,1 53167U 22083AM  24002.57154248  .00000098  00000-0  24220-4 0  9992,2 53167  53.2169 127.5129 0001437  93.4593 266.6563 15.08845595 81222,6917.863,95.437,540.722,538.734,0.0
53167.0,STARLINK-3683,PAYLOAD,2024-01-03 11:58:25,15.08837495,0.0001373,53.217,123.3507,83.1572,276.9576,-6.5371e-05,-1.328e-05,0.0,0 STARLINK-3683,1 53167U 22083AM  24003.49891014 -.00001328  00000-0 -65371-4 0  9994,2 53167  53.2170 123.3507 0001373  83.1572 276.9576 15.08837495 82005,6917.888,95.438,540.703,538.803,0.0
53167.0,STARLINK-3683,PAYLOAD,2024-01-03 13:33:48,15.0883818,0.0001404,53.2172,123.0533,89.2265,270.8888,-6.4854e-05,-1.32e-05,0.0,0 STARLINK-3683,1 53167U 22083AM  24003.56514948 -.00001320  00000-0 -64854-4 0  9997,2 53167  53.2172 123.0533 0001404  89.2265 270.8888 15.08838180 81374,6917.886,95.438,540.722,538.78,0.0
53167.0,STARLINK-3683,PAYLOAD,2024-01-04 13:24:35,15.08844563,0.0001324,53.217,118.5882,85.3067,274.8076,9.9699e-06,-1.29e-06,0.0,0 STARLINK-3683,1 53167U 22083AM  24004.55874318 -.00000129  00000-0  99699-5 0  9998,2 53167  53.2170 118.5882 0001324  85.3067 274.8076 15.08844563 81528,6917.866,95.437,540.647,538.816,0.0
53167.0,STARLINK-3683,PAYLOAD,2024-01-04 16:35:21,15.08849172,0.0001328,53.2167,117.9916,101.9219,258.1922,1.6945e-05,-1.8e-07,0.0,0 STARLINK-3683,1 53167U 22083AM  24004.69121854 -.00000018  00000-0  16945-4 0  9992,2 53167  53.2167 117.9916 0001328 101.9219 258.1922 15.08849172 82182,6917.852,95.437,540.636,538.799,0.0
53167.0,STARLINK-3683,PAYLOAD,2024-01-05 11:39:59,15.08838809,0.000193,53.2177,114.423,140.3646,219.7488,3.5536e-05,2.77e-06,0.0,0 STARLINK-3683,1 53167U 22083AM  24005.48610384  .00000277  00000-0  35536-4 0  9994,2 53167  53.2177 114.4230 0001930 140.3646 219.7488 15.08838809 82303,6917.884,95.438,541.084,538.414,0.0
53167.0,STARLINK-3683,PAYLOAD,2024-01-05 14:50:45,15.08842261,0.0001592,53.2175,113.8339,68.1483,291.9679,7.4116e-05,8.92e-06,0.0,0 STARLINK-3683,1 53167U 22083AM  24005.61858604  .00000892  00000-0  74116-4 0  9998,2 53167  53.2175 113.8339 0001592  68.1483 291.9679 15.08842261 81685,6917.873,95.437,540.84,538.637,0.0
53167.0,STARLINK-3683,PAYLOAD,2024-01-05 16:26:08,15.08843774,0.0001488,53.218,113.5346,81.8909,278.2252,8.7448e-05,1.104e-05,0.0,0 STARLINK-3683,1 53167U 22083AM  24005.68482376  .00001104  00000-0  87448-4 0  9993,2 53167  53.2180 113.5346 0001488  81.8909 278.2252 15.08843774 81691,6917.869,95.437,540.763,538.704,0.0
53167.0,STARLINK-3683,PAYLOAD,2024-01-06 11:30:46,15.08844293,0.0001274,53.2164,109.9689,99.1366,260.9771,-3.76e-05,-8.86e-06,0.0,0 STARLINK-3683,1 53167U 22083AM  24006.47970658 -.00000886  00000-0 -37600-4 0  9999,2 53167  53.2164 109.9689 0001274  99.1366 260.9771 15.08844293 81819,6917.867,95.437,540.614,538.851,0.0
53167.0,STARLINK-3683,PAYLOAD,2024-01-06 16:16:55,15.08848923,0.0001338,53.2167,109.0757,91.9616,268.1529,1.0707e-05,-1.17e-06,0.0,0 STARLINK-3683,1 53167U 22083AM  24006.67842214 -.00000117  00000-0  10707-4 0  9992,2 53167  53.2167 109.0757 0001338  91.9616 268.1529 15.08848923 82487,6917.853,95.437,540.644,538.793,0.0
53167.0,STARLINK-3683,PAYLOAD,2024-01-07 11:21:33,15.08838421,0.0001391,53.2167,105.5072,92.1318,267.9833,5.8117e-05,6.37e-06,0.0,0 STARLINK-3683,1 53167U 22083AM  24007.47330826  .00000637  00000-0  58117-4 0  9995,2 53167  53.2167 105.5072 0001391  92.1318 267.9833 15.08838421 82600,6917.885,95.438,540.712,538.788,0.0
53167.0,STARLINK-3683,PAYLOAD,2024-01-07 12:56:56,15.08845158,0.0001514,53.2166,105.2092,95.0869,265.0296,5.417e-05,5.74e-06,0.0,0 STARLINK-3683,1 53167U 22083AM  24007.53954468  .00000574  00000-0  54170-4 0  9991,2 53167  53.2166 105.2092 0001514  95.0869 265.0296 15.08845158 81974,6917.865,95.437,540.777,538.682,0.0
53167.0,STARLINK-3683,PAYLOAD,2024-01-07 16:07:42,15.08846837,0.0001486,53.2168,104.614,99.252,260.8641,7.084e-05,8.4e-06,0.0,0 STARLINK-3683,1 53167U 22083AM  24007.67202263  .00000840  00000-0  70840-4 0  9993,2 53167  53.2168 104.6140 0001486  99.2520 260.8641 15.08846837 82637,6917.859,95.437,540.752,538.696,0.0
53167.0,STARLINK-3683,PAYLOAD,2024-01-08 11:12:20,15.08842415,0.0001514,53.217,101.0438,107.2983,252.8174,2.4377e-06,-2.49e-06,0.0,0 STARLINK-3683,1 53167U 22083AM  24008.46690714 -.00000249  00000-0  24377-5 0  9992,2 53167  53.2170 101.0438 0001514 107.2983 252.8174 15.08842415 82759,6917.873,95.437,540.785,538.691,0.0
